PROGRESS-MS 32          
1 65586U 25204A   25335.06016206  .00009187  00000+0  17339-3 0  9992
2 65586  51.6309 200.2993 0003638 188.9407 171.1518 15.49217814   273
CYGNUS NG-23            
1 65616U 25208A   25335.06016206  .00009187  00000+0  17339-3 0  9990
2 65616  51.6309 200.2993 0003638 188.9407 171.1518 15.49217814   222
DRAGONFLY               
1 65729U 98067XH  25335.02362305  .00127610  00000+0  11358-2 0  9994
2 65729  51.6268 195.5531 0006447 205.9915 154.0758 15.67548156 11325
1998-067XJ              
1 65730U 98067XJ  25334.78087973  .02083121  36478-2  26017-2 0  9992
2 65730  51.6135 191.6004 0011095 229.1502 130.8550 16.07771346 11356
1998-067XK              
1 65731U 98067XK  25334.97983912  .00082678  00000+0  88759-3 0  9997
2 65731  51.6286 196.7702 0006036 179.5352 180.5649 15.63045239 11307
RSP-03                  
1 65732U 98067XL  25335.00331808  .00101607  00000+0  99915-3 0  9994
2 65732  51.6280 196.1705 0006815 182.2601 177.8365 15.65173979 11323
GHS-01                  
1 65733U 98067XM  25334.99267274  .00152847  00000+0  12552-2 0  9990
2 65733  51.6284 195.3518 0006977 204.9372 155.1289 15.69416754 11337
YOTSUBA-KULOVER         
1 65941U 98067XN  25335.04206624  .00061347  00000+0  81885-3 0  9990
2 65941  51.6291 198.6821 0002368 158.2272 201.8821 15.57486670  8034
BOTAN                   
1 65942U 98067XP  25335.00539653  .00087116  00000+0  10536-2 0  9994
2 65942  51.6292 198.4381 0004587 161.3348 198.7814 15.59944090  8032
E-KAGAKU-1              
1 65943U 98067XQ  25334.84937698  .00058750  00000+0  78628-3 0  9996
2 65943  51.6303 199.6478 0003700 138.7651 221.3622 15.57429478  8000
HRC MONOBLOCK CAMERA    
1 66052U 98067XR  25335.32995735  .00037549  00000+0  59417-3 0  9996
2 66052  51.6300 198.3503 0004534 138.3234 221.8102 15.53059008  7060
HTV-X1                  
1 66174U 25241A   25335.06016206  .00009187  00000+0  17339-3 0  9997
2 66174  51.6309 200.2993 0003638 188.9407 171.1518 15.49217814   514
