CCSDS_OMM_VERS = 2.0
CREATION_DATE  = 
ORIGINATOR     = 

OBJECT_NAME    = PROGRESS-MS 32
OBJECT_ID      = 2025-204A
CENTER_NAME    = EARTH
REF_FRAME      = TEME
TIME_SYSTEM    = UTC
MEAN_ELEMENT_THEORY = SGP/SGP4

EPOCH          = 2025-12-01T01:26:38.001984
MEAN_MOTION    = 15.49217814
ECCENTRICITY   = .00036382
INCLINATION    = 51.6309
RA_OF_ASC_NODE = 200.2993
ARG_OF_PERICENTER = 188.9407
MEAN_ANOMALY   = 171.1518

EPHEMERIS_TYPE = 0
CLASSIFICATION_TYPE = U
NORAD_CAT_ID   = 65586
ELEMENT_SET_NO = 999
REV_AT_EPOCH   = 27
BSTAR          = .17339321E-3
MEAN_MOTION_DOT = .9187E-4
MEAN_MOTION_DDOT = 0

CCSDS_OMM_VERS = 2.0
CREATION_DATE  = 
ORIGINATOR     = 

OBJECT_NAME    = CYGNUS NG-23
OBJECT_ID      = 2025-208A
CENTER_NAME    = EARTH
REF_FRAME      = TEME
TIME_SYSTEM    = UTC
MEAN_ELEMENT_THEORY = SGP/SGP4

EPOCH          = 2025-12-01T01:26:38.001984
MEAN_MOTION    = 15.49217814
ECCENTRICITY   = .00036382
INCLINATION    = 51.6309
RA_OF_ASC_NODE = 200.2993
ARG_OF_PERICENTER = 188.9407
MEAN_ANOMALY   = 171.1518

EPHEMERIS_TYPE = 0
CLASSIFICATION_TYPE = U
NORAD_CAT_ID   = 65616
ELEMENT_SET_NO = 999
REV_AT_EPOCH   = 22
BSTAR          = .17339321E-3
MEAN_MOTION_DOT = .9187E-4
MEAN_MOTION_DDOT = 0

CCSDS_OMM_VERS = 2.0
CREATION_DATE  = 
ORIGINATOR     = 

OBJECT_NAME    = DRAGONFLY
OBJECT_ID      = 1998-067XH
CENTER_NAME    = EARTH
REF_FRAME      = TEME
TIME_SYSTEM    = UTC
MEAN_ELEMENT_THEORY = SGP/SGP4

EPOCH          = 2025-12-01T00:34:01.031520
MEAN_MOTION    = 15.67548156
ECCENTRICITY   = .00064479
INCLINATION    = 51.6268
RA_OF_ASC_NODE = 195.5531
ARG_OF_PERICENTER = 205.9915
MEAN_ANOMALY   = 154.0758

EPHEMERIS_TYPE = 0
CLASSIFICATION_TYPE = U
NORAD_CAT_ID   = 65729
ELEMENT_SET_NO = 999
REV_AT_EPOCH   = 1132
BSTAR          = .11358337E-2
MEAN_MOTION_DOT = .12761E-2
MEAN_MOTION_DDOT = 0

CCSDS_OMM_VERS = 2.0
CREATION_DATE  = 
ORIGINATOR     = 

OBJECT_NAME    = 1998-067XJ
OBJECT_ID      = 1998-067XJ
CENTER_NAME    = EARTH
REF_FRAME      = TEME
TIME_SYSTEM    = UTC
MEAN_ELEMENT_THEORY = SGP/SGP4

EPOCH          = 2025-11-30T18:44:28.008672
MEAN_MOTION    = 16.07771346
ECCENTRICITY   = .00110958
INCLINATION    = 51.6135
RA_OF_ASC_NODE = 191.6004
ARG_OF_PERICENTER = 229.1502
MEAN_ANOMALY   = 130.8550

EPHEMERIS_TYPE = 0
CLASSIFICATION_TYPE = U
NORAD_CAT_ID   = 65730
ELEMENT_SET_NO = 999
REV_AT_EPOCH   = 1135
BSTAR          = .26017019E-2
MEAN_MOTION_DOT = .2083121E-1
MEAN_MOTION_DDOT = .36478294E-2

CCSDS_OMM_VERS = 2.0
CREATION_DATE  = 
ORIGINATOR     = 

OBJECT_NAME    = 1998-067XK
OBJECT_ID      = 1998-067XK
CENTER_NAME    = EARTH
REF_FRAME      = TEME
TIME_SYSTEM    = UTC
MEAN_ELEMENT_THEORY = SGP/SGP4

EPOCH          = 2025-11-30T23:30:58.099968
MEAN_MOTION    = 15.63045239
ECCENTRICITY   = .00060368
INCLINATION    = 51.6286
RA_OF_ASC_NODE = 196.7702
ARG_OF_PERICENTER = 179.5352
MEAN_ANOMALY   = 180.5649

EPHEMERIS_TYPE = 0
CLASSIFICATION_TYPE = U
NORAD_CAT_ID   = 65731
ELEMENT_SET_NO = 999
REV_AT_EPOCH   = 1130
BSTAR          = .88758548E-3
MEAN_MOTION_DOT = .82678E-3
MEAN_MOTION_DDOT = 0

CCSDS_OMM_VERS = 2.0
CREATION_DATE  = 
ORIGINATOR     = 

OBJECT_NAME    = RSP-03
OBJECT_ID      = 1998-067XL
CENTER_NAME    = EARTH
REF_FRAME      = TEME
TIME_SYSTEM    = UTC
MEAN_ELEMENT_THEORY = SGP/SGP4

EPOCH          = 2025-12-01T00:04:46.682112
MEAN_MOTION    = 15.65173979
ECCENTRICITY   = .00068156
INCLINATION    = 51.6280
RA_OF_ASC_NODE = 196.1705
ARG_OF_PERICENTER = 182.2601
MEAN_ANOMALY   = 177.8365

EPHEMERIS_TYPE = 0
CLASSIFICATION_TYPE = U
NORAD_CAT_ID   = 65732
ELEMENT_SET_NO = 999
REV_AT_EPOCH   = 1132
BSTAR          = .99915094E-3
MEAN_MOTION_DOT = .101607E-2
MEAN_MOTION_DDOT = 0

CCSDS_OMM_VERS = 2.0
CREATION_DATE  = 
ORIGINATOR     = 

OBJECT_NAME    = GHS-01
OBJECT_ID      = 1998-067XM
CENTER_NAME    = EARTH
REF_FRAME      = TEME
TIME_SYSTEM    = UTC
MEAN_ELEMENT_THEORY = SGP/SGP4

EPOCH          = 2025-11-30T23:49:26.924736
MEAN_MOTION    = 15.69416754
ECCENTRICITY   = .00069779
INCLINATION    = 51.6284
RA_OF_ASC_NODE = 195.3518
ARG_OF_PERICENTER = 204.9372
MEAN_ANOMALY   = 155.1289

EPHEMERIS_TYPE = 0
CLASSIFICATION_TYPE = U
NORAD_CAT_ID   = 65733
ELEMENT_SET_NO = 999
REV_AT_EPOCH   = 1133
BSTAR          = .12552164E-2
MEAN_MOTION_DOT = .152847E-2
MEAN_MOTION_DDOT = 0

CCSDS_OMM_VERS = 2.0
CREATION_DATE  = 
ORIGINATOR     = 

OBJECT_NAME    = YOTSUBA-KULOVER
OBJECT_ID      = 1998-067XN
CENTER_NAME    = EARTH
REF_FRAME      = TEME
TIME_SYSTEM    = UTC
MEAN_ELEMENT_THEORY = SGP/SGP4

EPOCH          = 2025-12-01T01:00:34.523136
MEAN_MOTION    = 15.57486670
ECCENTRICITY   = .00023689
INCLINATION    = 51.6291
RA_OF_ASC_NODE = 198.6821
ARG_OF_PERICENTER = 158.2272
MEAN_ANOMALY   = 201.8821

EPHEMERIS_TYPE = 0
CLASSIFICATION_TYPE = U
NORAD_CAT_ID   = 65941
ELEMENT_SET_NO = 999
REV_AT_EPOCH   = 803
BSTAR          = .81884567E-3
MEAN_MOTION_DOT = .61347E-3
MEAN_MOTION_DDOT = 0

CCSDS_OMM_VERS = 2.0
CREATION_DATE  = 
ORIGINATOR     = 

OBJECT_NAME    = BOTAN
OBJECT_ID      = 1998-067XP
CENTER_NAME    = EARTH
REF_FRAME      = TEME
TIME_SYSTEM    = UTC
MEAN_ELEMENT_THEORY = SGP/SGP4

EPOCH          = 2025-12-01T00:07:46.260192
MEAN_MOTION    = 15.59944090
ECCENTRICITY   = .00045874
INCLINATION    = 51.6292
RA_OF_ASC_NODE = 198.4381
ARG_OF_PERICENTER = 161.3348
MEAN_ANOMALY   = 198.7814

EPHEMERIS_TYPE = 0
CLASSIFICATION_TYPE = U
NORAD_CAT_ID   = 65942
ELEMENT_SET_NO = 999
REV_AT_EPOCH   = 803
BSTAR          = .10535817E-2
MEAN_MOTION_DOT = .87116E-3
MEAN_MOTION_DDOT = 0

CCSDS_OMM_VERS = 2.0
CREATION_DATE  = 
ORIGINATOR     = 

OBJECT_NAME    = E-KAGAKU-1
OBJECT_ID      = 1998-067XQ
CENTER_NAME    = EARTH
REF_FRAME      = TEME
TIME_SYSTEM    = UTC
MEAN_ELEMENT_THEORY = SGP/SGP4

EPOCH          = 2025-11-30T20:23:06.171072
MEAN_MOTION    = 15.57429478
ECCENTRICITY   = .00037009
INCLINATION    = 51.6303
RA_OF_ASC_NODE = 199.6478
ARG_OF_PERICENTER = 138.7651
MEAN_ANOMALY   = 221.3622

EPHEMERIS_TYPE = 0
CLASSIFICATION_TYPE = U
NORAD_CAT_ID   = 65943
ELEMENT_SET_NO = 999
REV_AT_EPOCH   = 800
BSTAR          = .78628329E-3
MEAN_MOTION_DOT = .5875E-3
MEAN_MOTION_DDOT = 0

CCSDS_OMM_VERS = 2.0
CREATION_DATE  = 
ORIGINATOR     = 

OBJECT_NAME    = HRC MONOBLOCK CAMERA
OBJECT_ID      = 1998-067XR
CENTER_NAME    = EARTH
REF_FRAME      = TEME
TIME_SYSTEM    = UTC
MEAN_ELEMENT_THEORY = SGP/SGP4

EPOCH          = 2025-12-01T07:55:08.315040
MEAN_MOTION    = 15.53059008
ECCENTRICITY   = .0004534
INCLINATION    = 51.6300
RA_OF_ASC_NODE = 198.3503
ARG_OF_PERICENTER = 138.3234
MEAN_ANOMALY   = 221.8102

EPHEMERIS_TYPE = 0
CLASSIFICATION_TYPE = U
NORAD_CAT_ID   = 66052
ELEMENT_SET_NO = 999
REV_AT_EPOCH   = 706
BSTAR          = .59417E-3
MEAN_MOTION_DOT = .37549E-3
MEAN_MOTION_DDOT = 0

CCSDS_OMM_VERS = 2.0
CREATION_DATE  = 
ORIGINATOR     = 

OBJECT_NAME    = HTV-X1
OBJECT_ID      = 2025-241A
CENTER_NAME    = EARTH
REF_FRAME      = TEME
TIME_SYSTEM    = UTC
MEAN_ELEMENT_THEORY = SGP/SGP4

EPOCH          = 2025-12-01T01:26:38.001984
MEAN_MOTION    = 15.49217814
ECCENTRICITY   = .00036382
INCLINATION    = 51.6309
RA_OF_ASC_NODE = 200.2993
ARG_OF_PERICENTER = 188.9407
MEAN_ANOMALY   = 171.1518

EPHEMERIS_TYPE = 0
CLASSIFICATION_TYPE = U
NORAD_CAT_ID   = 66174
ELEMENT_SET_NO = 999
REV_AT_EPOCH   = 51
BSTAR          = .17339321E-3
MEAN_MOTION_DOT = .9187E-4
MEAN_MOTION_DDOT = 0

